[
  {
    "ID": 1,
    "MoveType": "Fixed",
    "SpotPoint": "GateList_Spawn",
    "PointType": "Fixed",
    "AnimationState": "",
    "PlaceName": "Lobby"
  },
  {
    "ID": 2,
    "MoveType": "Fixed",
    "SpotPoint": "Shop_NPC_Spawn",
    "PointType": "Fixed",
    "AnimationState": "",
    "PlaceName": "Lobby"
  },
  {
    "ID": 3,
    "MoveType": "Fixed",
    "SpotPoint": "InformastionDesk_Spawn",
    "PointType": "Fixed",
    "AnimationState": "",
    "PlaceName": "Lobby"
  },
  {
    "ID": 4,
    "MoveType": "Fixed",
    "SpotPoint": "Gacha_NPC_Spawn",
    "PointType": "Fixed",
    "AnimationState": "",
    "PlaceName": "Lobby"
  },
  {
    "ID": 5,
    "MoveType": "Fixed",
    "SpotPoint": "Create_NPC_Spawn",
    "PointType": "Fixed",
    "AnimationState": "",
    "PlaceName": "Lobby"
  },
  {
    "ID": 6,
    "MoveType": "Fixed",
    "SpotPoint": "Idle_NPC_Spawn",
    "PointType": "Fixed",
    "AnimationState": "",
    "PlaceName": "Lobby"
  },
  {
    "ID": 7,
    "MoveType": "Fixed",
    "SpotPoint": "NPC_Spawn_1",
    "PointType": "Random",
    "AnimationState": "",
    "PlaceName": "Lobby"
  },
  {
    "ID": 8,
    "MoveType": "Fixed",
    "SpotPoint": "NPC_Spawn_2",
    "PointType": "Random",
    "AnimationState": "",
    "PlaceName": "Lobby"
  },
  {
    "ID": 9,
    "MoveType": "Fixed",
    "SpotPoint": "NPC_Spawn_3",
    "PointType": "Random",
    "AnimationState": "",
    "PlaceName": "Lobby"
  },
  {
    "ID": 11,
    "MoveType": "Fixed",
    "SpotPoint": "NPC_Spawn_5",
    "PointType": "Random",
    "AnimationState": "",
    "PlaceName": "Lobby"
  },
  {
    "ID": 12,
    "MoveType": "Fixed",
    "SpotPoint": "NPC_Spawn_6",
    "PointType": "Random",
    "AnimationState": "",
    "PlaceName": "Lobby"
  },
  {
    "ID": 13,
    "MoveType": "Fixed",
    "SpotPoint": "NPC_Spawn_7",
    "PointType": "Random",
    "AnimationState": "",
    "PlaceName": "Lobby"
  },
  {
    "ID": 14,
    "MoveType": "Fixed",
    "SpotPoint": "NPC_Spawn_8",
    "PointType": "Random",
    "AnimationState": "",
    "PlaceName": "Lobby"
  },
  {
    "ID": 15,
    "MoveType": "Fixed",
    "SpotPoint": "NPC_Spawn_9",
    "PointType": "Random",
    "AnimationState": "",
    "PlaceName": "Lobby"
  },
  {
    "ID": 16,
    "MoveType": "Fixed",
    "SpotPoint": "NPC_Spawn_10",
    "PointType": "Random",
    "AnimationState": "",
    "PlaceName": "Lobby"
  },
  {
    "ID": 17,
    "MoveType": "Fixed",
    "SpotPoint": "NPC_Spawn_11",
    "PointType": "Random",
    "AnimationState": "",
    "PlaceName": "Lobby"
  },
  {
    "ID": 18,
    "MoveType": "Fixed",
    "SpotPoint": "NPC_Spawn_12",
    "PointType": "Fixed",
    "AnimationState": "",
    "PlaceName": "Lobby"
  },
  {
    "ID": 19,
    "MoveType": "Fixed",
    "SpotPoint": "MainStroyBoard_Spawn",
    "PointType": "Fixed",
    "AnimationState": "",
    "PlaceName": "Lobby"
  },
  {
    "ID": 20,
    "MoveType": "Fixed",
    "SpotPoint": "Ranking_NPC_Spawn",
    "PointType": "Fixed",
    "AnimationState": "",
    "PlaceName": "Lobby"
  },
  {
    "ID": 21,
    "MoveType": "Fixed",
    "SpotPoint": "EventCake_Spawn",
    "PointType": "Fixed",
    "AnimationState": "",
    "PlaceName": "Lobby"
  },
  {
    "ID": 22,
    "MoveType": "Fixed",
    "SpotPoint": "NPC_Spawn_13",
    "PointType": "Fixed",
    "AnimationState": "",
    "PlaceName": "Lobby"
  },
  {
    "ID": 23,
    "MoveType": "Fixed",
    "SpotPoint": "TrainingRoom_Spawn",
    "PointType": "Fixed",
    "AnimationState": "",
    "PlaceName": "Lobby"
  },
  {
    "ID": 24,
    "MoveType": "Fixed",
    "SpotPoint": "BGMEncyclopedia_Spawn",
    "PointType": "Fixed",
    "AnimationState": "",
    "PlaceName": "Lobby"
  }
]